SUOMI-100               
1 43804U 18099AY  26068.68271181  .00014037  00000+0  54773-3 0  9995
2 43804  97.4315 129.5602 0008969 269.9465  90.0745 15.25995383398238
STARLINK-31065          
1 58627U 23203K   26068.03322703  .00000121  00000+0  13913-4 0  9994
2 58627  43.0000  70.5804 0000683 259.7162 100.3613 15.27577916123460
